CCSDS_OMM_VERS = 2.0
CREATION_DATE  = 
ORIGINATOR     = 

OBJECT_NAME    = PROGRESS-MS 32
OBJECT_ID      = 2025-204A
CENTER_NAME    = EARTH
REF_FRAME      = TEME
TIME_SYSTEM    = UTC
MEAN_ELEMENT_THEORY = SGP/SGP4

EPOCH          = 2025-11-06T07:01:00.427584
MEAN_MOTION    = 15.49789706
ECCENTRICITY   = .00051238
INCLINATION    = 51.6335
RA_OF_ASC_NODE = 322.9076
ARG_OF_PERICENTER = 22.8618
MEAN_ANOMALY   = 337.2598

EPHEMERIS_TYPE = 0
CLASSIFICATION_TYPE = U
NORAD_CAT_ID   = 65586
ELEMENT_SET_NO = 999
REV_AT_EPOCH   = 27
BSTAR          = .21866297E-3
MEAN_MOTION_DOT = .11954E-3
MEAN_MOTION_DDOT = 0

CCSDS_OMM_VERS = 2.0
CREATION_DATE  = 
ORIGINATOR     = 

OBJECT_NAME    = CYGNUS NG-23
OBJECT_ID      = 2025-208A
CENTER_NAME    = EARTH
REF_FRAME      = TEME
TIME_SYSTEM    = UTC
MEAN_ELEMENT_THEORY = SGP/SGP4

EPOCH          = 2025-11-06T07:01:00.427584
MEAN_MOTION    = 15.49789706
ECCENTRICITY   = .00051238
INCLINATION    = 51.6335
RA_OF_ASC_NODE = 322.9076
ARG_OF_PERICENTER = 22.8618
MEAN_ANOMALY   = 337.2598

EPHEMERIS_TYPE = 0
CLASSIFICATION_TYPE = U
NORAD_CAT_ID   = 65616
ELEMENT_SET_NO = 999
REV_AT_EPOCH   = 22
BSTAR          = .21866297E-3
MEAN_MOTION_DOT = .11954E-3
MEAN_MOTION_DDOT = 0

CCSDS_OMM_VERS = 2.0
CREATION_DATE  = 
ORIGINATOR     = 

OBJECT_NAME    = DRAGONFLY
OBJECT_ID      = 1998-067XH
CENTER_NAME    = EARTH
REF_FRAME      = TEME
TIME_SYSTEM    = UTC
MEAN_ELEMENT_THEORY = SGP/SGP4

EPOCH          = 2025-11-06T07:09:51.084288
MEAN_MOTION    = 15.60650724
ECCENTRICITY   = .000393
INCLINATION    = 51.6311
RA_OF_ASC_NODE = 320.7027
ARG_OF_PERICENTER = 83.8399
MEAN_ANOMALY   = 276.3042

EPHEMERIS_TYPE = 0
CLASSIFICATION_TYPE = U
NORAD_CAT_ID   = 65729
ELEMENT_SET_NO = 999
REV_AT_EPOCH   = 745
BSTAR          = .14973E-2
MEAN_MOTION_DOT = .128074E-2
MEAN_MOTION_DDOT = 0

CCSDS_OMM_VERS = 2.0
CREATION_DATE  = 
ORIGINATOR     = 

OBJECT_NAME    = 1998-067XJ
OBJECT_ID      = 1998-067XJ
CENTER_NAME    = EARTH
REF_FRAME      = TEME
TIME_SYSTEM    = UTC
MEAN_ELEMENT_THEORY = SGP/SGP4

EPOCH          = 2025-11-06T07:19:08.410944
MEAN_MOTION    = 15.70599974
ECCENTRICITY   = .0011227
INCLINATION    = 51.6280
RA_OF_ASC_NODE = 319.2366
ARG_OF_PERICENTER = 66.4281
MEAN_ANOMALY   = 293.7894

EPHEMERIS_TYPE = 0
CLASSIFICATION_TYPE = U
NORAD_CAT_ID   = 65730
ELEMENT_SET_NO = 999
REV_AT_EPOCH   = 747
BSTAR          = .29815E-2
MEAN_MOTION_DOT = .394142E-2
MEAN_MOTION_DDOT = 0

CCSDS_OMM_VERS = 2.0
CREATION_DATE  = 
ORIGINATOR     = 

OBJECT_NAME    = 1998-067XK
OBJECT_ID      = 1998-067XK
CENTER_NAME    = EARTH
REF_FRAME      = TEME
TIME_SYSTEM    = UTC
MEAN_ELEMENT_THEORY = SGP/SGP4

EPOCH          = 2025-11-06T07:54:23.878656
MEAN_MOTION    = 15.58374630
ECCENTRICITY   = .0005216
INCLINATION    = 51.6331
RA_OF_ASC_NODE = 320.9110
ARG_OF_PERICENTER = 62.0844
MEAN_ANOMALY   = 298.0676

EPHEMERIS_TYPE = 0
CLASSIFICATION_TYPE = U
NORAD_CAT_ID   = 65731
ELEMENT_SET_NO = 999
REV_AT_EPOCH   = 745
BSTAR          = .1147E-2
MEAN_MOTION_DOT = .89418E-3
MEAN_MOTION_DDOT = 0

CCSDS_OMM_VERS = 2.0
CREATION_DATE  = 
ORIGINATOR     = 

OBJECT_NAME    = RSP-03
OBJECT_ID      = 1998-067XL
CENTER_NAME    = EARTH
REF_FRAME      = TEME
TIME_SYSTEM    = UTC
MEAN_ELEMENT_THEORY = SGP/SGP4

EPOCH          = 2025-11-06T19:50:49.667136
MEAN_MOTION    = 15.59593476
ECCENTRICITY   = .0005963
INCLINATION    = 51.6307
RA_OF_ASC_NODE = 318.2312
ARG_OF_PERICENTER = 67.2249
MEAN_ANOMALY   = 292.9374

EPHEMERIS_TYPE = 0
CLASSIFICATION_TYPE = U
NORAD_CAT_ID   = 65732
ELEMENT_SET_NO = 999
REV_AT_EPOCH   = 754
BSTAR          = .11758E-2
MEAN_MOTION_DOT = .96122E-3
MEAN_MOTION_DDOT = 0

CCSDS_OMM_VERS = 2.0
CREATION_DATE  = 
ORIGINATOR     = 

OBJECT_NAME    = GHS-01
OBJECT_ID      = 1998-067XM
CENTER_NAME    = EARTH
REF_FRAME      = TEME
TIME_SYSTEM    = UTC
MEAN_ELEMENT_THEORY = SGP/SGP4

EPOCH          = 2025-11-06T14:35:27.853728
MEAN_MOTION    = 15.61556735
ECCENTRICITY   = .0004505
INCLINATION    = 51.6317
RA_OF_ASC_NODE = 319.0201
ARG_OF_PERICENTER = 83.4178
MEAN_ANOMALY   = 276.7328

EPHEMERIS_TYPE = 0
CLASSIFICATION_TYPE = U
NORAD_CAT_ID   = 65733
ELEMENT_SET_NO = 999
REV_AT_EPOCH   = 751
BSTAR          = .14655E-2
MEAN_MOTION_DOT = .129845E-2
MEAN_MOTION_DDOT = 0

CCSDS_OMM_VERS = 2.0
CREATION_DATE  = 
ORIGINATOR     = 

OBJECT_NAME    = YOTSUBA-KULOVER
OBJECT_ID      = 1998-067XN
CENTER_NAME    = EARTH
REF_FRAME      = TEME
TIME_SYSTEM    = UTC
MEAN_ELEMENT_THEORY = SGP/SGP4

EPOCH          = 2025-11-06T07:28:28.864416
MEAN_MOTION    = 15.53808670
ECCENTRICITY   = .00026285
INCLINATION    = 51.6323
RA_OF_ASC_NODE = 322.2864
ARG_OF_PERICENTER = 13.3948
MEAN_ANOMALY   = 346.7112

EPHEMERIS_TYPE = 0
CLASSIFICATION_TYPE = U
NORAD_CAT_ID   = 65941
ELEMENT_SET_NO = 999
REV_AT_EPOCH   = 418
BSTAR          = .10916774E-2
MEAN_MOTION_DOT = .71602E-3
MEAN_MOTION_DDOT = 0

CCSDS_OMM_VERS = 2.0
CREATION_DATE  = 
ORIGINATOR     = 

OBJECT_NAME    = BOTAN
OBJECT_ID      = 1998-067XP
CENTER_NAME    = EARTH
REF_FRAME      = TEME
TIME_SYSTEM    = UTC
MEAN_ELEMENT_THEORY = SGP/SGP4

EPOCH          = 2025-11-06T05:43:11.276544
MEAN_MOTION    = 15.54833848
ECCENTRICITY   = .00048305
INCLINATION    = 51.6323
RA_OF_ASC_NODE = 322.5492
ARG_OF_PERICENTER = 28.2597
MEAN_ANOMALY   = 331.8656

EPHEMERIS_TYPE = 0
CLASSIFICATION_TYPE = U
NORAD_CAT_ID   = 65942
ELEMENT_SET_NO = 999
REV_AT_EPOCH   = 417
BSTAR          = .1389075E-2
MEAN_MOTION_DOT = .95041E-3
MEAN_MOTION_DDOT = 0

CCSDS_OMM_VERS = 2.0
CREATION_DATE  = 
ORIGINATOR     = 

OBJECT_NAME    = E-KAGAKU-1
OBJECT_ID      = 1998-067XQ
CENTER_NAME    = EARTH
REF_FRAME      = TEME
TIME_SYSTEM    = UTC
MEAN_ELEMENT_THEORY = SGP/SGP4

EPOCH          = 2025-11-05T11:23:48.792192
MEAN_MOTION    = 15.53691300
ECCENTRICITY   = .00043857
INCLINATION    = 51.6326
RA_OF_ASC_NODE = 326.4510
ARG_OF_PERICENTER = 13.9907
MEAN_ANOMALY   = 346.1204

EPHEMERIS_TYPE = 0
CLASSIFICATION_TYPE = U
NORAD_CAT_ID   = 65943
ELEMENT_SET_NO = 999
REV_AT_EPOCH   = 405
BSTAR          = .85729517E-3
MEAN_MOTION_DOT = .55785E-3
MEAN_MOTION_DDOT = 0

CCSDS_OMM_VERS = 2.0
CREATION_DATE  = 
ORIGINATOR     = 

OBJECT_NAME    = HRC MONOBLOCK CAMERA
OBJECT_ID      = 1998-067XR
CENTER_NAME    = EARTH
REF_FRAME      = TEME
TIME_SYSTEM    = UTC
MEAN_ELEMENT_THEORY = SGP/SGP4

EPOCH          = 2025-11-06T12:58:34.395168
MEAN_MOTION    = 15.50961464
ECCENTRICITY   = .0004585
INCLINATION    = 51.6322
RA_OF_ASC_NODE = 321.5642
ARG_OF_PERICENTER = 35.8874
MEAN_ANOMALY   = 324.2423

EPHEMERIS_TYPE = 0
CLASSIFICATION_TYPE = U
NORAD_CAT_ID   = 66052
ELEMENT_SET_NO = 999
REV_AT_EPOCH   = 321
BSTAR          = .67448E-3
MEAN_MOTION_DOT = .39579E-3
MEAN_MOTION_DDOT = 0

CCSDS_OMM_VERS = 2.0
CREATION_DATE  = 
ORIGINATOR     = 

OBJECT_NAME    = HTV-X1
OBJECT_ID      = 2025-241A
CENTER_NAME    = EARTH
REF_FRAME      = TEME
TIME_SYSTEM    = UTC
MEAN_ELEMENT_THEORY = SGP/SGP4

EPOCH          = 2025-11-06T07:01:00.427584
MEAN_MOTION    = 15.49789706
ECCENTRICITY   = .00051238
INCLINATION    = 51.6335
RA_OF_ASC_NODE = 322.9076
ARG_OF_PERICENTER = 22.8618
MEAN_ANOMALY   = 337.2598

EPHEMERIS_TYPE = 0
CLASSIFICATION_TYPE = U
NORAD_CAT_ID   = 66174
ELEMENT_SET_NO = 999
REV_AT_EPOCH   = 145
BSTAR          = .21866297E-3
MEAN_MOTION_DOT = .11954E-3
MEAN_MOTION_DDOT = 0

